{
  "norad_id": 65098,
  "name": "STARLINK-34764",
  "history": [
    {
      "epoch": "2026-03-28T20:23:11.297184",
      "apogee_km": 475.77157873746273,
      "perigee_km": 474.61857414892256,
      "latitude_deg": 49.438885395275385,
      "longitude_deg": 51.34588576015085,
      "semi_major_axis_km": 6853.332076443193,
      "eccentricity": 8.412e-05,
      "inclination_deg": 53.1588,
      "raan_deg": 297.6356,
      "arg_perigee_deg": 92.6675,
      "mean_anomaly_deg": 267.4422,
      "mean_motion_rev_day": 15.30206696
    }
  ]
}